MAKERSAT 0              
1 43016U 17073D   18301.35359535  .00000408  00000-0  37617-4 0  9993
2 43016  97.7118 226.9847 0258272 197.7098 161.4985 14.78361929 50801
ASTERIA                 
1 43020U 98067NH  18301.51902475  .00011942  00000-0  13771-3 0  9994
2 43020  51.6426  63.1146 0002324 320.2764  39.8060 15.62408005 53310
DELLINGR (RBLE)         
1 43021U 98067NJ  18301.57838800  .00006798  00000-0  90852-4 0  9990
2 43021  51.6403  66.4585 0002077 308.2478  51.8328 15.59345958 53271
OSIRIS-3U               
1 43027U 98067NL  18301.51239122  .00047714  00000-0  32962-3 0  9992
2 43027  51.6374  51.6770 0004426 315.7455  44.3189 15.74043494 53341
AEROCUBE 7B             
1 43042U 17071F   18301.53997223  .00002731  00000-0  78084-4 0  9996
2 43042  51.6377 111.4809 0005124  36.6136 323.5197 15.39678194 50148
AEROCUBE 7C             
1 43043U 17071G   18300.89080563  .00003271  00000-0  91512-4 0  9996
2 43043  51.6377 114.6540 0005210  35.8449 324.2884 15.39680491 50010
CHEFSAT                 
1 43044U 17071H   18300.73619232  .00004407  00000-0  11435-3 0  9998
2 43044  51.6384 113.6695 0005015  34.8711 325.2602 15.41123046 50013
ASGARDIA 1              
1 43049U 17071N   18300.79606840  .00002399  00000-0  69528-4 0  9995
2 43049  51.6383 114.7831 0002901  58.9858 301.1411 15.39792856 49995
ISARA                   
1 43050U 17071P   18300.88563175  .00004872  00000-0  12649-3 0  9999
2 43050  51.6378 113.1519 0002709  58.1277 301.9971 15.40851273 50037
FAUNA                   
1 43052U 17071R   18300.70637559  .00003008  00000-0  84176-4 0  9995
2 43052  51.6385 114.9466 0002805  55.5820 304.5430 15.39971973 49988
CORVUS BC3              
1 43118U 18004H   18300.71891546  .00000664  00000-0  31755-4 0  9994
2 43118  97.5186   3.4755 0010428   0.6400 359.4847 15.22463430 43876
MICROMAS-2A             
1 43131U 18004W   18300.88351457  .00001563  00000-0  68964-4 0  9990
2 43131  97.5198   3.9002 0009561   3.6692 356.4613 15.23266470 43915
GOMX4-B                 
1 43196U 18015E   18300.93181472  .00000379  00000-0  18632-4 0  9998
2 43196  97.3634  67.2867 0020527  52.7841 307.5260 15.23734236 40740
GOMX4-A                 
1 43197U 18015F   18301.39296911  .00000439  00000-0  21083-4 0  9996
2 43197  97.3646  67.7432 0020694  52.3994 341.8141 15.23806708 40829
1KUNS-PF                
1 43466U 98067NP  18301.54543721  .00012289  00000-0  16296-3 0  9996
2 43466  51.6403  70.7289 0000439 280.9153  79.1791 15.58683308 26471
UBAKUSAT                
1 43467U 98067NQ  18301.38943309  .00009025  00000-0  12551-3 0  9999
2 43467  51.6396  71.9395 0002400 268.6486  91.4232 15.57792615 26452
BATSU-CS1 (IRAZU)       
1 43468U 98067NR  18300.80558131  .00016374  00000-0  20955-3 0  9993
2 43468  51.6396  74.0376 0000385 261.4824  98.6126 15.59351155126356
CUBERRT                 
1 43546U 98067NU  18301.53593565  .00003955  00000-0  61212-4 0  9994
2 43546  51.6401  72.9070 0005715 335.0751  24.9964 15.56660099 16589
TEMPEST-D               
1 43547U 98067NV  18300.92166637  .00003679  00000-0  59610-4 0  9995
2 43547  51.6397  76.3023 0005684 335.7237  24.3486 15.55607553 16163
RAINCUBE                
1 43548U 98067NW  18301.55010289  .00008541  00000-0  12586-3 0  9990
2 43548  51.6396  73.0001 0005762 344.4777  15.6037 15.56290763 16714
HALOSAT                 
1 43549U 98067NX  18301.55060865  .00008240  00000-0  12178-3 0  9999
2 43549  51.6397  73.0041 0005732 347.0170  13.0673 15.56268284 16275
ENDUROSAT ONE           
1 43551U 98067NZ  18300.94699372  .00009998  00000-0  14337-3 0  9995
2 43551  51.6393  75.7219 0006267 350.0067  10.0799 15.56809271 16591
EQUISAT                 
1 43552U 98067PA  18300.63276606  .00009026  00000-0  13134-3 0  9999
2 43552  51.6393  77.3748 0006499 349.8520  10.2339 15.56551542 16502
AEROCUBE 12A            
1 43556U 18046C   18300.95338177  .00000645  00000-0  36118-4 0  9995
2 43556  51.6427  97.2117 0008072 318.3749  41.6616 15.27954214 15818
AEROCUBE 12B            
1 43557U 18046D   18300.88890760  .00000494  00000-0  30710-4 0  9993
2 43557  51.6428  97.5307 0008081 318.0569  41.9791 15.27916769 15754
UITMSAT-1               
1 43589U 98067PD  18301.18689771  .00010390  00000-0  15227-3 0  9992
2 43589  51.6393  75.0720 0005899   0.7271 359.3728 15.56164864 12328
MAYA-1                  
1 43590U 98067PE  18301.50656454  .00009854  00000-0  14460-3 0  9993
2 43590  51.6394  73.4576 0006012   2.6837 357.4186 15.56198940 12306
BHUTAN-1                
1 43591U 98067PF  18300.92667409  .00010085  00000-0  14767-3 0  9999
2 43591  51.6393  76.3347 0006043   2.0287 358.0728 15.56227502 12217
SIRIUSSAT-1             
1 43595U 98067PG  18300.82112031  .00009163  00000-0  13716-3 0  9996
2 43595  51.6393  77.1250 0003479 311.1795  48.8896 15.55760783 11379
SIRIUSSAT-2             
1 43596U 98067PH  18301.53437203  .00008720  00000-0  13152-3 0  9999
2 43596  51.6402  73.6459 0004159 317.7093  42.3577 15.55624586 11489
TANUSHA-3               
1 43597U 98067PJ  18300.82207037  .00011451  00000-0  16886-3 0  9993
2 43597  51.6382  77.1250 0003645 327.4124  32.6642 15.55883144 11377
SURFSAT                 
1 43614U 18070B   18300.92415386  .00002546  00000-0  71626-4 0  9997
2 43614  93.0287 267.0313 0018540 118.9955 241.3149 15.36395621  6503
CP-7 (DAVE)             
1 43615U 18070C   18300.92392148  .00002500  00000-0  70327-4 0  9995
2 43615  93.0282 267.0324 0018650 118.8845 241.4272 15.36399724  6506
ELFIN-B                 
1 43616U 18070D   18300.98710641 -.00000006  00000-0  00000+0 0  9990
2 43616  93.0267 267.0355 0020411 122.5294 237.8204 15.36487548  6519
ELFIN-A                 
1 43617U 18070E   18301.37710465 -.00000006  00000-0  00000+0 0  9999
2 43617  93.0270 267.2316 0018553 118.9437 241.4550 15.36527599  6577
